{
    "links": {
        "self": "http://www.neowsapp.com/rest/v1/neo/3254498?api_key=iIulBulltgU6a56xZRHN4H3l9WmuAYTsLGpBGhQ2"
    },
    "id": "3254498",
    "neo_reference_id": "3254498",
    "name": "(2004 SA20)",
    "designation": "2004 SA20",
    "nasa_jpl_url": "http://ssd.jpl.nasa.gov/sbdb.cgi?sstr=3254498",
    "absolute_magnitude_h": 22.8,
    "estimated_diameter": {
        "kilometers": {
            "estimated_diameter_min": 0.0732073989,
            "estimated_diameter_max": 0.1636967205
        },
        "meters": {
            "estimated_diameter_min": 73.2073989347,
            "estimated_diameter_max": 163.696720474
        },
        "miles": {
            "estimated_diameter_min": 0.0454889547,
            "estimated_diameter_max": 0.1017163949
        },
        "feet": {
            "estimated_diameter_min": 240.181762721,
            "estimated_diameter_max": 537.0627483999
        }
    },
    "is_potentially_hazardous_asteroid": false,
    "close_approach_data": [
        {
            "close_approach_date": "1929-10-07",
            "close_approach_date_full": "1929-Oct-07 09:19",
            "epoch_date_close_approach": -1269700860000,
            "relative_velocity": {
                "kilometers_per_second": "28.9149959551",
                "kilometers_per_hour": "104093.9854382556",
                "miles_per_hour": "64679.9544518983"
            },
            "miss_distance": {
                "astronomical": "0.3086140464",
                "lunar": "120.0508640496",
                "kilometers": "46168003.993521168",
                "miles": "28687467.4260333984"
            },
            "orbiting_body": "Earth"
        },
        {
            "close_approach_date": "1931-01-26",
            "close_approach_date_full": "1931-Jan-26 13:59",
            "epoch_date_close_approach": -1228557660000,
            "relative_velocity": {
                "kilometers_per_second": "8.1868578588",
                "kilometers_per_hour": "29472.6882915295",
                "miles_per_hour": "18313.1823442562"
            },
            "miss_distance": {
                "astronomical": "1.8312408281",
                "lunar": "712.3526821309",
                "kilometers": "273949727.340796147",
                "miles": "170224467.1561429486"
            },
            "orbiting_body": "Juptr"
        },
        {
            "close_approach_date": "2004-09-17",
            "close_approach_date_full": "2004-Sep-17 01:36",
            "epoch_date_close_approach": 1095384960000,
            "relative_velocity": {
                "kilometers_per_second": "18.4246756079",
                "kilometers_per_hour": "66328.8321883864",
                "miles_per_hour": "41214.1568672782"
            },
            "miss_distance": {
                "astronomical": "0.046443822",
                "lunar": "18.066646758",
                "kilometers": "6947896.84585914",
                "miles": "4317222.907730532"
            },
            "orbiting_body": "Earth"
        }
    ],
    "orbital_data": {
        "orbit_id": "9",
        "orbit_determination_date": "2017-04-06 09:12:11",
        "first_observation_date": "2004-09-21",
        "last_observation_date": "2004-10-08",
        "data_arc_in_days": 17,
        "observations_used": 19,
        "orbit_uncertainty": "9",
        "minimum_orbit_intersection": ".0329329",
        "jupiter_tisserand_invariant": "3.108",
        "epoch_osculation": "2453272.5",
        "eccentricity": ".7113481248186155",
        "semi_major_axis": "2.418981446810235",
        "inclination": "2.847575730858271",
        "ascending_node_longitude": "135.6618738829166",
        "orbital_period": "1374.191421138534",
        "perihelion_distance": ".6982435306507526",
        "perihelion_argument": "146.9286789435322",
        "aphelion_distance": "4.139719362969717",
        "perihelion_time": "2453222.409745078103",
        "mean_anomaly": "13.12225610966395",
        "mean_motion": ".261972236518356",
        "equinox": "J2000",
        "orbit_class": {
            "orbit_class_type": "APO",
            "orbit_class_description": "Near-Earth asteroid orbits which cross the Earth’s orbit similar to that of 1862 Apollo",
            "orbit_class_range": "a (semi-major axis) > 1.0 AU; q (perihelion) < 1.017 AU"
        }
    },
    "is_sentry_object": false
}